<?xml version="1.0" encoding="UTF-8"?>
<ndm xmlns:xsi="http://www.w3.org/2001/XMLSchema-instance" xsi:noNamespaceSchemaLocation="https://sanaregistry.org/r/ndmxml_unqualified/ndmxml-2.0.0-master-2.0.xsd">
<omm id="CCSDS_OMM_VERS" version="2.0">
<header><CREATION_DATE/><ORIGINATOR/></header><body><segment><metadata><OBJECT_NAME>KUIPER-00152</OBJECT_NAME><OBJECT_ID>2025-217L</OBJECT_ID><CENTER_NAME>EARTH</CENTER_NAME><REF_FRAME>TEME</REF_FRAME><TIME_SYSTEM>UTC</TIME_SYSTEM><MEAN_ELEMENT_THEORY>SGP4</MEAN_ELEMENT_THEORY></metadata><data><meanElements><EPOCH>2025-11-30T03:36:12.629088</EPOCH><MEAN_MOTION>15.38536001</MEAN_MOTION><ECCENTRICITY>.0002457</ECCENTRICITY><INCLINATION>51.8713</INCLINATION><RA_OF_ASC_NODE>124.8710</RA_OF_ASC_NODE><ARG_OF_PERICENTER>262.9276</ARG_OF_PERICENTER><MEAN_ANOMALY>97.1432</MEAN_ANOMALY></meanElements><tleParameters><EPHEMERIS_TYPE>0</EPHEMERIS_TYPE><CLASSIFICATION_TYPE>U</CLASSIFICATION_TYPE><NORAD_CAT_ID>65772</NORAD_CAT_ID><ELEMENT_SET_NO>999</ELEMENT_SET_NO><REV_AT_EPOCH>1011</REV_AT_EPOCH><BSTAR>.14703E-2</BSTAR><MEAN_MOTION_DOT>.56846E-3</MEAN_MOTION_DOT><MEAN_MOTION_DDOT>0</MEAN_MOTION_DDOT></tleParameters></data></segment></body></omm>
<omm id="CCSDS_OMM_VERS" version="2.0">
<header><CREATION_DATE/><ORIGINATOR/></header><body><segment><metadata><OBJECT_NAME>KUIPER-00153</OBJECT_NAME><OBJECT_ID>2025-217M</OBJECT_ID><CENTER_NAME>EARTH</CENTER_NAME><REF_FRAME>TEME</REF_FRAME><TIME_SYSTEM>UTC</TIME_SYSTEM><MEAN_ELEMENT_THEORY>SGP4</MEAN_ELEMENT_THEORY></metadata><data><meanElements><EPOCH>2025-11-30T03:08:31.171776</EPOCH><MEAN_MOTION>15.10757217</MEAN_MOTION><ECCENTRICITY>.0011896</ECCENTRICITY><INCLINATION>51.8761</INCLINATION><RA_OF_ASC_NODE>130.6555</RA_OF_ASC_NODE><ARG_OF_PERICENTER>335.1041</ARG_OF_PERICENTER><MEAN_ANOMALY>24.9359</MEAN_ANOMALY></meanElements><tleParameters><EPHEMERIS_TYPE>0</EPHEMERIS_TYPE><CLASSIFICATION_TYPE>U</CLASSIFICATION_TYPE><NORAD_CAT_ID>65773</NORAD_CAT_ID><ELEMENT_SET_NO>999</ELEMENT_SET_NO><REV_AT_EPOCH>1003</REV_AT_EPOCH><BSTAR>.65329E-3</BSTAR><MEAN_MOTION_DOT>.10705E-3</MEAN_MOTION_DOT><MEAN_MOTION_DDOT>0</MEAN_MOTION_DDOT></tleParameters></data></segment></body></omm>
<omm id="CCSDS_OMM_VERS" version="2.0">
<header><CREATION_DATE/><ORIGINATOR/></header><body><segment><metadata><OBJECT_NAME>KUIPER-00155</OBJECT_NAME><OBJECT_ID>2025-217N</OBJECT_ID><CENTER_NAME>EARTH</CENTER_NAME><REF_FRAME>TEME</REF_FRAME><TIME_SYSTEM>UTC</TIME_SYSTEM><MEAN_ELEMENT_THEORY>SGP4</MEAN_ELEMENT_THEORY></metadata><data><meanElements><EPOCH>2025-11-30T03:41:00.252096</EPOCH><MEAN_MOTION>15.37007569</MEAN_MOTION><ECCENTRICITY>.0006818</ECCENTRICITY><INCLINATION>51.8659</INCLINATION><RA_OF_ASC_NODE>125.5985</RA_OF_ASC_NODE><ARG_OF_PERICENTER>315.4326</ARG_OF_PERICENTER><MEAN_ANOMALY>44.6112</MEAN_ANOMALY></meanElements><tleParameters><EPHEMERIS_TYPE>0</EPHEMERIS_TYPE><CLASSIFICATION_TYPE>U</CLASSIFICATION_TYPE><NORAD_CAT_ID>65774</NORAD_CAT_ID><ELEMENT_SET_NO>999</ELEMENT_SET_NO><REV_AT_EPOCH>1010</REV_AT_EPOCH><BSTAR>.1333E-2</BSTAR><MEAN_MOTION_DOT>.48971E-3</MEAN_MOTION_DOT><MEAN_MOTION_DDOT>0</MEAN_MOTION_DDOT></tleParameters></data></segment></body></omm>
<omm id="CCSDS_OMM_VERS" version="2.0">
<header><CREATION_DATE/><ORIGINATOR/></header><body><segment><metadata><OBJECT_NAME>KUIPER-00156</OBJECT_NAME><OBJECT_ID>2025-217P</OBJECT_ID><CENTER_NAME>EARTH</CENTER_NAME><REF_FRAME>TEME</REF_FRAME><TIME_SYSTEM>UTC</TIME_SYSTEM><MEAN_ELEMENT_THEORY>SGP4</MEAN_ELEMENT_THEORY></metadata><data><meanElements><EPOCH>2025-11-29T16:54:03.266208</EPOCH><MEAN_MOTION>15.38610329</MEAN_MOTION><ECCENTRICITY>.0002491</ECCENTRICITY><INCLINATION>51.8707</INCLINATION><RA_OF_ASC_NODE>127.1308</RA_OF_ASC_NODE><ARG_OF_PERICENTER>265.2316</ARG_OF_PERICENTER><MEAN_ANOMALY>94.8386</MEAN_ANOMALY></meanElements><tleParameters><EPHEMERIS_TYPE>0</EPHEMERIS_TYPE><CLASSIFICATION_TYPE>U</CLASSIFICATION_TYPE><NORAD_CAT_ID>65775</NORAD_CAT_ID><ELEMENT_SET_NO>999</ELEMENT_SET_NO><REV_AT_EPOCH>1004</REV_AT_EPOCH><BSTAR>.10531E-2</BSTAR><MEAN_MOTION_DOT>.40615E-3</MEAN_MOTION_DOT><MEAN_MOTION_DDOT>0</MEAN_MOTION_DDOT></tleParameters></data></segment></body></omm>
<omm id="CCSDS_OMM_VERS" version="2.0">
<header><CREATION_DATE/><ORIGINATOR/></header><body><segment><metadata><OBJECT_NAME>KUIPER-00158</OBJECT_NAME><OBJECT_ID>2025-217Q</OBJECT_ID><CENTER_NAME>EARTH</CENTER_NAME><REF_FRAME>TEME</REF_FRAME><TIME_SYSTEM>UTC</TIME_SYSTEM><MEAN_ELEMENT_THEORY>SGP4</MEAN_ELEMENT_THEORY></metadata><data><meanElements><EPOCH>2025-11-30T04:00:03.998880</EPOCH><MEAN_MOTION>15.10646636</MEAN_MOTION><ECCENTRICITY>.0004283</ECCENTRICITY><INCLINATION>51.8795</INCLINATION><RA_OF_ASC_NODE>128.0766</RA_OF_ASC_NODE><ARG_OF_PERICENTER>298.1081</ARG_OF_PERICENTER><MEAN_ANOMALY>14.5234</MEAN_ANOMALY></meanElements><tleParameters><EPHEMERIS_TYPE>0</EPHEMERIS_TYPE><CLASSIFICATION_TYPE>U</CLASSIFICATION_TYPE><NORAD_CAT_ID>65776</NORAD_CAT_ID><ELEMENT_SET_NO>999</ELEMENT_SET_NO><REV_AT_EPOCH>530</REV_AT_EPOCH><BSTAR>-.7807E-1</BSTAR><MEAN_MOTION_DOT>-.1199316E-1</MEAN_MOTION_DOT><MEAN_MOTION_DDOT>0</MEAN_MOTION_DDOT></tleParameters></data></segment></body></omm>
<omm id="CCSDS_OMM_VERS" version="2.0">
<header><CREATION_DATE/><ORIGINATOR/></header><body><segment><metadata><OBJECT_NAME>KUIPER-00163</OBJECT_NAME><OBJECT_ID>2025-217R</OBJECT_ID><CENTER_NAME>EARTH</CENTER_NAME><REF_FRAME>TEME</REF_FRAME><TIME_SYSTEM>UTC</TIME_SYSTEM><MEAN_ELEMENT_THEORY>SGP4</MEAN_ELEMENT_THEORY></metadata><data><meanElements><EPOCH>2025-11-30T04:00:03.998880</EPOCH><MEAN_MOTION>15.01572079</MEAN_MOTION><ECCENTRICITY>.0011114</ECCENTRICITY><INCLINATION>51.8817</INCLINATION><RA_OF_ASC_NODE>129.5063</RA_OF_ASC_NODE><ARG_OF_PERICENTER>343.0321</ARG_OF_PERICENTER><MEAN_ANOMALY>239.9605</MEAN_ANOMALY></meanElements><tleParameters><EPHEMERIS_TYPE>0</EPHEMERIS_TYPE><CLASSIFICATION_TYPE>U</CLASSIFICATION_TYPE><NORAD_CAT_ID>65777</NORAD_CAT_ID><ELEMENT_SET_NO>999</ELEMENT_SET_NO><REV_AT_EPOCH>382</REV_AT_EPOCH><BSTAR>-.69311E-1</BSTAR><MEAN_MOTION_DOT>-.846337E-2</MEAN_MOTION_DOT><MEAN_MOTION_DDOT>0</MEAN_MOTION_DDOT></tleParameters></data></segment></body></omm>
<omm id="CCSDS_OMM_VERS" version="2.0">
<header><CREATION_DATE/><ORIGINATOR/></header><body><segment><metadata><OBJECT_NAME>KUIPER-00165</OBJECT_NAME><OBJECT_ID>2025-217S</OBJECT_ID><CENTER_NAME>EARTH</CENTER_NAME><REF_FRAME>TEME</REF_FRAME><TIME_SYSTEM>UTC</TIME_SYSTEM><MEAN_ELEMENT_THEORY>SGP4</MEAN_ELEMENT_THEORY></metadata><data><meanElements><EPOCH>2025-11-30T04:00:03.998880</EPOCH><MEAN_MOTION>15.32400370</MEAN_MOTION><ECCENTRICITY>.0004001</ECCENTRICITY><INCLINATION>51.8703</INCLINATION><RA_OF_ASC_NODE>125.2457</RA_OF_ASC_NODE><ARG_OF_PERICENTER>298.9647</ARG_OF_PERICENTER><MEAN_ANOMALY>276.5308</MEAN_ANOMALY></meanElements><tleParameters><EPHEMERIS_TYPE>0</EPHEMERIS_TYPE><CLASSIFICATION_TYPE>U</CLASSIFICATION_TYPE><NORAD_CAT_ID>65778</NORAD_CAT_ID><ELEMENT_SET_NO>999</ELEMENT_SET_NO><REV_AT_EPOCH>430</REV_AT_EPOCH><BSTAR>-.16179E-1</BSTAR><MEAN_MOTION_DOT>-.482558E-2</MEAN_MOTION_DOT><MEAN_MOTION_DDOT>0</MEAN_MOTION_DDOT></tleParameters></data></segment></body></omm>
<omm id="CCSDS_OMM_VERS" version="2.0">
<header><CREATION_DATE/><ORIGINATOR/></header><body><segment><metadata><OBJECT_NAME>KUIPER-00166</OBJECT_NAME><OBJECT_ID>2025-217T</OBJECT_ID><CENTER_NAME>EARTH</CENTER_NAME><REF_FRAME>TEME</REF_FRAME><TIME_SYSTEM>UTC</TIME_SYSTEM><MEAN_ELEMENT_THEORY>SGP4</MEAN_ELEMENT_THEORY></metadata><data><meanElements><EPOCH>2025-11-29T21:54:03.581280</EPOCH><MEAN_MOTION>15.38204493</MEAN_MOTION><ECCENTRICITY>.0003463</ECCENTRICITY><INCLINATION>51.8689</INCLINATION><RA_OF_ASC_NODE>126.2715</RA_OF_ASC_NODE><ARG_OF_PERICENTER>273.7999</ARG_OF_PERICENTER><MEAN_ANOMALY>86.2592</MEAN_ANOMALY></meanElements><tleParameters><EPHEMERIS_TYPE>0</EPHEMERIS_TYPE><CLASSIFICATION_TYPE>U</CLASSIFICATION_TYPE><NORAD_CAT_ID>65779</NORAD_CAT_ID><ELEMENT_SET_NO>999</ELEMENT_SET_NO><REV_AT_EPOCH>1007</REV_AT_EPOCH><BSTAR>.13453E-2</BSTAR><MEAN_MOTION_DOT>.51386E-3</MEAN_MOTION_DOT><MEAN_MOTION_DDOT>0</MEAN_MOTION_DDOT></tleParameters></data></segment></body></omm>

</ndm>
