KUIPER-00152            
1 65772U 25217L   25334.15014617  .00056846  00000+0  14703-2 0  9991
2 65772  51.8713 124.8710 0002457 262.9276  97.1432 15.38536001 10110
KUIPER-00153            
1 65773U 25217M   25334.13091634  .00010705  00000+0  65329-3 0  9999
2 65773  51.8761 130.6555 0011896 335.1041  24.9359 15.10757217 10037
KUIPER-00155            
1 65774U 25217N   25334.15347514  .00048971  00000+0  13330-2 0  9993
2 65774  51.8659 125.5985 0006818 315.4326  44.6112 15.37007569 10100
KUIPER-00156            
1 65775U 25217P   25333.70420447  .00040615  00000+0  10531-2 0  9998
2 65775  51.8707 127.1308 0002491 265.2316  94.8386 15.38610329 10044
KUIPER-00158            
1 65776U 25217Q   25334.16671295 -.01199316  00000+0 -78070-1 0  9996
2 65776  51.8795 128.0766 0004283 298.1081  14.5234 15.10646636  5309
KUIPER-00163            
1 65777U 25217R   25334.16671295 -.00846337  00000+0 -69311-1 0  9996
2 65777  51.8817 129.5063 0011114 343.0321 239.9605 15.01572079  3828
KUIPER-00165            
1 65778U 25217S   25334.16671295 -.00482558  00000+0 -16179-1 0  9992
2 65778  51.8703 125.2457 0004001 298.9647 276.5308 15.32400370  4308
KUIPER-00166            
1 65779U 25217T   25333.91254145  .00051386  00000+0  13453-2 0  9998
2 65779  51.8689 126.2715 0003463 273.7999  86.2592 15.38204493 10078
